BEIDOU-3 IGSO-2         
1 44337U 19035A   26156.64982878 -.00000068  00000+0  00000+0 0  9994
2 44337  55.2445 158.9631 0039796 216.1606 232.8050  1.00270597 25555
NAVSTAR 78 (USA 293)    
1 44506U 19056A   26153.44735856 -.00000081  00000+0  00000+0 0  9997
2 44506  55.6403 331.7284 0061230 197.3681 346.8768  2.00569922 49773
BEIDOU-3 M24            
1 44542U 19061A   26155.35556796  .00000070  00000+0  00000+0 0  9996
2 44542  54.3958 183.1608 0008292 359.5616   0.4973  1.86229272 45559
BEIDOU-3 M23            
1 44543U 19061B   26156.16027098  .00000075  00000+0  00000+0 0  9990
2 44543  54.3945 183.1018 0005525 339.5866 111.6566  1.86227560 45575
BEIDOU-3 IGSO-3         
1 44709U 19073A   26136.81046384 -.00000217  00000+0  00000+0 0  9995
2 44709  54.8566 281.2355 0042953 189.4588 170.3676  1.00246251 24144
BEIDOU-3 M22            
1 44793U 19078A   26156.80606815 -.00000055  00000+0  00000+0 0  9995
2 44793  53.9467 300.2280 0006630  49.5810 310.4674  1.86227665 44433
BEIDOU-3 M21            
1 44794U 19078B   26156.94601721 -.00000055  00000+0  00000+0 0  9992
2 44794  53.9198 300.1845 0004552  47.7436 312.2860  1.86228151 44445
COSMOS 2544 [GLONASS-M] 
1 44850U 19088A   26156.29783765 -.00000006  00000+0  00000+0 0  9999
2 44850  65.5596  74.1271 0013693 259.9573  99.9093  2.13102169 50462
BEIDOU-3 M19            
1 44864U 19090A   26156.92406019 -.00000038  00000+0  00000+0 0  9996
2 44864  56.5489  63.1634 0018206 297.4846 245.0613  1.86231875 44027
BEIDOU-3 M20            
1 44865U 19090B   26156.79105872 -.00000038  00000+0  00000+0 0  9995
2 44865  56.5505  63.2026 0016133 310.9679 232.0002  1.86231721 44001
BEIDOU-3 G2             
1 45344U 20017A   26157.21850525 -.00000128  00000+0  00000+0 0  9999
2 45344   2.8419  47.1790 0002639  24.8298 341.3287  1.00274320 23155
COSMOS 2545 [GLONASS-M] 
1 45358U 20018A   26156.49289023 -.00000033  00000+0  00000+0 0  9998
2 45358  64.3625 312.8297 0007849 231.7893 128.1339  2.13102783 48417
NAVSTAR 79 (USA 304)    
1 45854U 20041A   26156.51852450 -.00000070  00000+0  00000+0 0  9999
2 45854  56.6620  29.3967 0063444 204.6335 336.1006  2.00559161 43806
COSMOS 2547 [GLONASS-K] 
1 46805U 20075A   26156.21307741  .00000069  00000+0  00000+0 0  9995
2 46805  64.5987 192.8757 0009155 239.4130 120.5675  2.13100365 43650
NAVSTAR 80 (USA 309)    
1 46826U 20078A   26156.80354916  .00000041  00000+0  00000+0 0  9992
2 46826  53.9813 211.2406 0073048 206.8740 155.6187  2.00564981 41285
NAVSTAR 81 (USA 319)    
1 48859U 21054A   26156.99534403 -.00000065  00000+0  00000+0 0  9993
2 48859  55.1802 332.9100 0025022 228.5969  98.5336  2.00569938 36529
QZS-1R (MICHIBIKI-1R)   
1 49336U 21096A   26156.65951731 -.00000239  00000+0  00000+0 0  9993
2 49336  37.4382  79.7551 0754176 271.5566 274.8683  1.00260126 16890
GSAT0223 (GALILEO 27)   
1 49809U 21116A   26156.84191771 -.00000066  00000+0  00000+0 0  9990
2 49809  57.1638 341.9819 0001178 182.7956 174.1817  1.70476196 27988
GSAT0224 (GALILEO 28)   
1 49810U 21116B   26152.84978400 -.00000079  00000+0  00000+0 0  9994
2 49810  57.1667 342.0878 0000821 134.5472  44.9862  1.70476406 27945
COSMOS 2557 [GLONASS-K] 
1 52984U 22075A   26155.90818447 -.00000037  00000+0  00000+0 0  9993
2 52984  64.3043 314.9179 0010156 276.0496  83.8276  2.13102273 30458
COSMOS 2559 [GLONASS-K] 
1 54031U 22130A   26157.13557347 -.00000032  00000+0  00000+0 0  9991
2 54031  64.2805 314.9582 0012373 177.2217 182.7817  2.13101704 28457
COSMOS 2564 [GLONASS-M] 
1 54377U 22161A   26156.04037397  .00000069  00000+0  00000+0 0  9994
2 54377  64.7406 193.1150 0012026 224.1220 135.8537  2.13102077 27373
NAVSTAR 82 (USA 343)    
1 55268U 23009A   26156.74028147  .00000086  00000+0  00000+0 0  9995
2 55268  55.1216 148.9690 0006184 317.6827 223.4166  2.00572353 25017
COSMOS 2569 [GLONASS-K2]
1 57517U 23114A   26156.05272242 -.00000009  00000+0  00000+0 0  9998
2 57517  65.2956  73.0297 0011128 296.7426  63.1656  2.13103796 22000
